{
  "type": "FeatureCollection",
  "features": [
    {
      "type": "Feature",
      "properties": {
        "norad_id": 35835,
        "name": "COSMOS 2251 DEB",
        "group": "cosmos-2251-debris",
        "lat": -23.36437836672604,
        "lon": 106.05402852727178,
        "alt_km": 1124.4418366040427,
        "timestamp": "2025-12-06T11:28:11.459016+00:00",
        "meta_object_name": "COSMOS 2251 DEB",
        "meta_object_id": "1993-036ATH",
        "meta_epoch": "2025-12-04T13:22:03.090144",
        "meta_mean_motion": 13.82821616,
        "meta_eccentricity": 0.0289764,
        "meta_inclination": 74.0638,
        "meta_ra_of_asc_node": 282.192,
        "meta_arg_of_pericenter": 65.7075,
        "meta_mean_anomaly": 297.4021,
        "meta_ephemeris_type": 0,
        "meta_classification_type": "U",
        "meta_norad_cat_id": 35835,
        "meta_element_set_no": 999,
        "meta_rev_at_epoch": 61586,
        "meta_bstar": 0.0025294,
        "meta_mean_motion_dot": 3.783e-05,
        "meta_mean_motion_ddot": 0,
        "tle_line1": "1 35835U 93036ATH 25338.55698021  .00003783  00000+0  25294-2 0  9996",
        "tle_line2": "2 35835  74.0638 282.1920 0289764  65.7075 297.4021 13.82821616615863"
      },
      "geometry": {
        "type": "Point",
        "coordinates": [
          106.05402852727178,
          -23.36437836672604
        ]
      }
    },
    {
      "type": "Feature",
      "properties": {
        "norad_id": 35836,
        "name": "COSMOS 2251 DEB",
        "group": "cosmos-2251-debris",
        "lat": -54.85332803954852,
        "lon": 29.093918373062742,
        "alt_km": 647.7192760089883,
        "timestamp": "2025-12-06T11:28:11.459026+00:00",
        "meta_object_name": "COSMOS 2251 DEB",
        "meta_object_id": "1993-036ATJ",
        "meta_epoch": "2025-12-04T07:46:52.126752",
        "meta_mean_motion": 14.70687432,
        "meta_eccentricity": 0.0025001,
        "meta_inclination": 74.0321,
        "meta_ra_of_asc_node": 189.2758,
        "meta_arg_of_pericenter": 248.9498,
        "meta_mean_anomaly": 110.9,
        "meta_ephemeris_type": 0,
        "meta_classification_type": "U",
        "meta_norad_cat_id": 35836,
        "meta_element_set_no": 999,
        "meta_rev_at_epoch": 63396,
        "meta_bstar": 0.0041741,
        "meta_mean_motion_dot": 0.00025617,
        "meta_mean_motion_ddot": 0,
        "tle_line1": "1 35836U 93036ATJ 25338.32421443  .00025617  00000+0  41741-2 0  9999",
        "tle_line2": "2 35836  74.0321 189.2758 0025001 248.9498 110.9000 14.70687432633966"
      },
      "geometry": {
        "type": "Point",
        "coordinates": [
          29.093918373062742,
          -54.85332803954852
        ]
      }
    },
    {
      "type": "Feature",
      "properties": {
        "norad_id": 35837,
        "name": "COSMOS 2251 DEB",
        "group": "cosmos-2251-debris",
        "lat": 53.75185438754835,
        "lon": -118.46988968741215,
        "alt_km": 964.8734262618782,
        "timestamp": "2025-12-06T11:28:11.459037+00:00",
        "meta_object_name": "COSMOS 2251 DEB",
        "meta_object_id": "1993-036ATK",
        "meta_epoch": "2025-12-05T22:58:58.978848",
        "meta_mean_motion": 13.6340631,
        "meta_eccentricity": 0.04221275,
        "meta_inclination": 73.7214,
        "meta_ra_of_asc_node": 218.9093,
        "meta_arg_of_pericenter": 140.7831,
        "meta_mean_anomaly": 248.457,
        "meta_ephemeris_type": 0,
        "meta_classification_type": "U",
        "meta_norad_cat_id": 35837,
        "meta_element_set_no": 999,
        "meta_rev_at_epoch": 57884,
        "meta_bstar": 0.0027794154,
        "meta_mean_motion_dot": 3.987e-05,
        "meta_mean_motion_ddot": 0,
        "tle_line1": "1 35837U 93036ATK 25339.95762707  .00003987  00000+0  27794-2 0  9999",
        "tle_line2": "2 35837  73.7214 218.9093 0422127 140.7831 248.4570 13.63406310578845"
      },
      "geometry": {
        "type": "Point",
        "coordinates": [
          -118.46988968741215,
          53.75185438754835
        ]
      }
    },
    {
      "type": "Feature",
      "properties": {
        "norad_id": 35839,
        "name": "COSMOS 2251 DEB",
        "group": "cosmos-2251-debris",
        "lat": -21.97503657332447,
        "lon": 163.6683363994343,
        "alt_km": 432.58104366423686,
        "timestamp": "2025-12-06T11:28:11.459048+00:00",
        "meta_object_name": "COSMOS 2251 DEB",
        "meta_object_id": "1993-036ATM",
        "meta_epoch": "2025-12-04T16:40:31.810368",
        "meta_mean_motion": 15.46007318,
        "meta_eccentricity": 0.00035851,
        "meta_inclination": 74.2143,
        "meta_ra_of_asc_node": 340.9603,
        "meta_arg_of_pericenter": 348.8276,
        "meta_mean_anomaly": 11.2856,
        "meta_ephemeris_type": 0,
        "meta_classification_type": "U",
        "meta_norad_cat_id": 35839,
        "meta_element_set_no": 999,
        "meta_rev_at_epoch": 88443,
        "meta_bstar": 0.0054614209,
        "meta_mean_motion_dot": 0.00276351,
        "meta_mean_motion_ddot": 0,
        "tle_line1": "1 35839U 93036ATM 25338.69481262  .00276351  00000+0  54614-2 0  9993",
        "tle_line2": "2 35839  74.2143 340.9603 0003585 348.8276  11.2856 15.46007318884430"
      },
      "geometry": {
        "type": "Point",
        "coordinates": [
          163.6683363994343,
          -21.97503657332447
        ]
      }
    },
    {
      "type": "Feature",
      "properties": {
        "norad_id": 35840,
        "name": "COSMOS 2251 DEB",
        "group": "cosmos-2251-debris",
        "lat": -9.848926390122687,
        "lon": 166.91658038324957,
        "alt_km": 760.2984593290957,
        "timestamp": "2025-12-06T11:28:11.459058+00:00",
        "meta_object_name": "COSMOS 2251 DEB",
        "meta_object_id": "1993-036ATN",
        "meta_epoch": "2025-12-03T06:41:48.528096",
        "meta_mean_motion": 14.37668767,
        "meta_eccentricity": 0.0116177,
        "meta_inclination": 73.9299,
        "meta_ra_of_asc_node": 175.711,
        "meta_arg_of_pericenter": 80.5155,
        "meta_mean_anomaly": 280.9106,
        "meta_ephemeris_type": 0,
        "meta_classification_type": "U",
        "meta_norad_cat_id": 35840,
        "meta_element_set_no": 999,
        "meta_rev_at_epoch": 85155,
        "meta_bstar": 0.0020521,
        "meta_mean_motion_dot": 6.645e-05,
        "meta_mean_motion_ddot": 0,
        "tle_line1": "1 35840U 93036ATN 25337.27903389  .00006645  00000+0  20521-2 0  9994",
        "tle_line2": "2 35840  73.9299 175.7110 0116177  80.5155 280.9106 14.37668767851555"
      },
      "geometry": {
        "type": "Point",
        "coordinates": [
          166.91658038324957,
          -9.848926390122687
        ]
      }
    },
    {
      "type": "Feature",
      "properties": {
        "norad_id": 35883,
        "name": "COSMOS 2251 DEB",
        "group": "cosmos-2251-debris",
        "lat": 58.20475939079288,
        "lon": 109.33643099940217,
        "alt_km": 769.5175020608676,
        "timestamp": "2025-12-06T11:28:11.459068+00:00",
        "meta_object_name": "COSMOS 2251 DEB",
        "meta_object_id": "1993-036ATW",
        "meta_epoch": "2025-11-29T02:53:29.744160",
        "meta_mean_motion": 14.50541303,
        "meta_eccentricity": 0.00841977,
        "meta_inclination": 74.0237,
        "meta_ra_of_asc_node": 95.6459,
        "meta_arg_of_pericenter": 227.8885,
        "meta_mean_anomaly": 309.997,
        "meta_ephemeris_type": 0,
        "meta_classification_type": "U",
        "meta_norad_cat_id": 35883,
        "meta_element_set_no": 999,
        "meta_rev_at_epoch": 62188,
        "meta_bstar": 0.00041574036,
        "meta_mean_motion_dot": 1.674e-05,
        "meta_mean_motion_ddot": 0,
        "tle_line1": "1 35883U 93036ATW 25333.12048315  .00001674  00000+0  41574-3 0  9999",
        "tle_line2": "2 35883  74.0237  95.6459 0084197 227.8885 309.9970 14.50541303621887"
      },
      "geometry": {
        "type": "Point",
        "coordinates": [
          109.33643099940217,
          58.20475939079288
        ]
      }
    },
    {
      "type": "Feature",
      "properties": {
        "norad_id": 35884,
        "name": "COSMOS 2251 DEB",
        "group": "cosmos-2251-debris",
        "lat": -14.588399277370717,
        "lon": -16.934424455720617,
        "alt_km": 879.4871860877465,
        "timestamp": "2025-12-06T11:28:11.459078+00:00",
        "meta_object_name": "COSMOS 2251 DEB",
        "meta_object_id": "1993-036ATX",
        "meta_epoch": "2025-12-01T08:35:40.210656",
        "meta_mean_motion": 14.25555603,
        "meta_eccentricity": 0.01094526,
        "meta_inclination": 73.9914,
        "meta_ra_of_asc_node": 356.6148,
        "meta_arg_of_pericenter": 146.5236,
        "meta_mean_anomaly": 214.2894,
        "meta_ephemeris_type": 0,
        "meta_classification_type": "U",
        "meta_norad_cat_id": 35884,
        "meta_element_set_no": 999,
        "meta_rev_at_epoch": 22195,
        "meta_bstar": 0.0012758145,
        "meta_mean_motion_dot": 3.19e-05,
        "meta_mean_motion_ddot": 0,
        "tle_line1": "1 35884U 93036ATX 25335.35810429  .00003190  00000+0  12758-2 0  9996",
        "tle_line2": "2 35884  73.9914 356.6148 0109452 146.5236 214.2894 14.25555603221959"
      },
      "geometry": {
        "type": "Point",
        "coordinates": [
          -16.934424455720617,
          -14.588399277370717
        ]
      }
    }
  ]
}